start=new Date('2022-01-15T00:00:00.000Z').valueOf();
sats=[{"MEAN_MOTION":"15.06395260","REF_FRAME":"TEME","BSTAR":"0.00015093000000","COUNTRY_CODE":"US","TLE_LINE2":"2 48563  53.0552  93.4152 0001360  97.9564 262.1579 15.06395260 36831","PERIAPSIS":"546.286","SITE":"AFETR","RCS_SIZE":"LARGE","INCLINATION":"53.0552","OBJECT_ID":"2021-041L","ARG_OF_PERICENTER":"97.9564","MEAN_MOTION_DOT":"0.00001967","CENTER_NAME":"EARTH","MEAN_ELEMENT_THEORY":"SGP4","DECAY_DATE":null,"LAUNCH_DATE":"2021-05-15","EPOCH":"2022-01-14T12:52:31.414080","CLASSIFICATION_TYPE":"U","SEMIMAJOR_AXIS":"6925.363","MEAN_MOTION_DDOT":"0.0000000000000","ELEMENT_SET_NO":"999","ECCENTRICITY":"0.00013600","FILE":"3272874","MEAN_ANOMALY":"262.1579","REV_AT_EPOCH":"3683","NORAD_CAT_ID":"48563","RA_OF_ASC_NODE":"93.4152","EPHEMERIS_TYPE":"0","OBJECT_NAME":"STARLINK-2188","OBJECT_TYPE":"PAYLOAD","APOAPSIS":"548.170","TIME_SYSTEM":"UTC","GP_ID":"193848122","TLE_LINE1":"1 48563U 21041L   22014.53647470  .00001967  00000-0  15093-3 0  9993","PERIOD":"95.592"},{"REF_FRAME":"TEME","MEAN_MOTION":"15.06403157","BSTAR":"0.00021314000000","COUNTRY_CODE":"US","PERIAPSIS":"546.330","TLE_LINE2":"2 48564  53.0567  93.4521 0001262  87.6630 272.4503 15.06403157 36835","INCLINATION":"53.0567","RCS_SIZE":"LARGE","SITE":"AFETR","MEAN_MOTION_DOT":"0.00002895","ARG_OF_PERICENTER":"87.6630","CENTER_NAME":"EARTH","OBJECT_ID":"2021-041M","LAUNCH_DATE":"2021-05-15","MEAN_ELEMENT_THEORY":"SGP4","DECAY_DATE":null,"MEAN_MOTION_DDOT":"0.0000000000000","SEMIMAJOR_AXIS":"6925.339","EPOCH":"2022-01-14T12:41:54.625344","CLASSIFICATION_TYPE":"U","ELEMENT_SET_NO":"999","ECCENTRICITY":"0.00012620","RA_OF_ASC_NODE":"93.4521","NORAD_CAT_ID":"48564","REV_AT_EPOCH":"3683","FILE":"3272874","MEAN_ANOMALY":"272.4503","EPHEMERIS_TYPE":"0","OBJECT_NAME":"STARLINK-2190","APOAPSIS":"548.078","OBJECT_TYPE":"PAYLOAD","GP_ID":"193848130","TLE_LINE1":"1 48564U 21041M   22014.52910446  .00002895  00000-0  21314-3 0  9993","TIME_SYSTEM":"UTC","PERIOD":"95.592"},{"TIME_SYSTEM":"UTC","TLE_LINE1":"1 48565U 21041N   22014.72446296  .00000790  00000-0  71917-4 0  9990","GP_ID":"193879995","PERIOD":"95.592","OBJECT_NAME":"STARLINK-2191","OBJECT_TYPE":"PAYLOAD","APOAPSIS":"547.997","REV_AT_EPOCH":"3686","FILE":"3273247","MEAN_ANOMALY":"269.2291","NORAD_CAT_ID":"48565","RA_OF_ASC_NODE":"92.5753","EPHEMERIS_TYPE":"0","ELEMENT_SET_NO":"999","ECCENTRICITY":"0.00011140","CLASSIFICATION_TYPE":"U","EPOCH":"2022-01-14T17:23:13.599744","MEAN_MOTION_DDOT":"0.0000000000000","SEMIMAJOR_AXIS":"6925.360","OBJECT_ID":"2021-041N","CENTER_NAME":"EARTH","ARG_OF_PERICENTER":"90.8826","MEAN_MOTION_DOT":"0.00000790","DECAY_DATE":null,"MEAN_ELEMENT_THEORY":"SGP4","LAUNCH_DATE":"2021-05-15","TLE_LINE2":"2 48565  53.0556  92.5753 0001114  90.8826 269.2291 15.06396176 36863","PERIAPSIS":"546.454","SITE":"AFETR","INCLINATION":"53.0556","RCS_SIZE":"LARGE","MEAN_MOTION":"15.06396176","REF_FRAME":"TEME","COUNTRY_CODE":"US","BSTAR":"0.00007191700000"},{"APOAPSIS":"547.927","OBJECT_TYPE":"PAYLOAD","OBJECT_NAME":"STARLINK-2214","PERIOD":"95.592","TLE_LINE1":"1 48566U 21041P   22014.74838914  .00000437  00000-0  48209-4 0  9991","GP_ID":"193880245","TIME_SYSTEM":"UTC","ECCENTRICITY":"0.00010460","ELEMENT_SET_NO":"999","EPHEMERIS_TYPE":"0","NORAD_CAT_ID":"48566","RA_OF_ASC_NODE":"102.4596","FILE":"3273247","REV_AT_EPOCH":"3672","MEAN_ANOMALY":"275.4393","LAUNCH_DATE":"2021-05-15","MEAN_ELEMENT_THEORY":"SGP4","DECAY_DATE":null,"MEAN_MOTION_DOT":"0.00000437","ARG_OF_PERICENTER":"84.6715","CENTER_NAME":"EARTH","OBJECT_ID":"2021-041P","SEMIMAJOR_AXIS":"6925.338","MEAN_MOTION_DDOT":"0.0000000000000","EPOCH":"2022-01-14T17:57:40.821696","CLASSIFICATION_TYPE":"U","BSTAR":"0.00004820900000","COUNTRY_CODE":"US","REF_FRAME":"TEME","MEAN_MOTION":"15.06403473","RCS_SIZE":"MEDIUM","INCLINATION":"53.0562","SITE":"AFETR","PERIAPSIS":"546.479","TLE_LINE2":"2 48566  53.0562 102.4596 0001046  84.6715 275.4393 15.06403473 36725"},{"CLASSIFICATION_TYPE":"U","EPOCH":"2022-01-14T13:28:21.123840","MEAN_MOTION_DDOT":"0.0000000000000","SEMIMAJOR_AXIS":"6925.350","DECAY_DATE":null,"MEAN_ELEMENT_THEORY":"SGP4","LAUNCH_DATE":"2021-05-15","OBJECT_ID":"2021-041Q","CENTER_NAME":"EARTH","ARG_OF_PERICENTER":"99.4771","MEAN_MOTION_DOT":"0.00002393","SITE":"AFETR","RCS_SIZE":"LARGE","INCLINATION":"53.0552","TLE_LINE2":"2 48567  53.0552 103.2869 0001164  99.4771 260.6350 15.06399418 36692","PERIAPSIS":"546.409","BSTAR":"0.00017950000000","COUNTRY_CODE":"US","MEAN_MOTION":"15.06399418","REF_FRAME":"TEME","PERIOD":"95.592","TIME_SYSTEM":"UTC","GP_ID":"193848623","TLE_LINE1":"1 48567U 21041Q   22014.56135560  .00002393  00000-0  17950-3 0  9990","OBJECT_TYPE":"PAYLOAD","APOAPSIS":"548.021","OBJECT_NAME":"STARLINK-2215","EPHEMERIS_TYPE":"0","MEAN_ANOMALY":"260.6350","FILE":"3272874","REV_AT_EPOCH":"3669","NORAD_CAT_ID":"48567","RA_OF_ASC_NODE":"103.2869","ECCENTRICITY":"0.00011640","ELEMENT_SET_NO":"999"},{"SITE":"AFETR","RCS_SIZE":"MEDIUM","INCLINATION":"53.0562","TLE_LINE2":"2 48568  53.0562  92.6380 0001317  94.6240 265.4899 15.06398273 36858","PERIAPSIS":"546.307","BSTAR":"0.00006110900000","COUNTRY_CODE":"US","MEAN_MOTION":"15.06398273","REF_FRAME":"TEME","CLASSIFICATION_TYPE":"U","EPOCH":"2022-01-14T16:56:40.879680","MEAN_MOTION_DDOT":"0.0000000000000","SEMIMAJOR_AXIS":"6925.354","DECAY_DATE":null,"MEAN_ELEMENT_THEORY":"SGP4","LAUNCH_DATE":"2021-05-15","OBJECT_ID":"2021-041R","CENTER_NAME":"EARTH","MEAN_MOTION_DOT":"0.00000629","ARG_OF_PERICENTER":"94.6240","EPHEMERIS_TYPE":"0","FILE":"3273247","MEAN_ANOMALY":"265.4899","REV_AT_EPOCH":"3685","RA_OF_ASC_NODE":"92.6380","NORAD_CAT_ID":"48568","ECCENTRICITY":"0.00013170","ELEMENT_SET_NO":"999","PERIOD":"95.592","TIME_SYSTEM":"UTC","TLE_LINE1":"1 48568U 21041R   22014.70602870  .00000629  00000-0  61109-4 0  9996","GP_ID":"193881747","OBJECT_TYPE":"PAYLOAD","APOAPSIS":"548.131","OBJECT_NAME":"STARLINK-2217"},{"RCS_SIZE":"LARGE","INCLINATION":"53.0552","SITE":"AFETR","PERIAPSIS":"546.439","TLE_LINE2":"2 48569  53.0552  92.5405 0001136  87.1329 272.9790 15.06395937 36867","BSTAR":"0.00004922300000","COUNTRY_CODE":"US","REF_FRAME":"TEME","MEAN_MOTION":"15.06395937","MEAN_MOTION_DDOT":"0.0000000000000","SEMIMAJOR_AXIS":"6925.361","CLASSIFICATION_TYPE":"U","EPOCH":"2022-01-14T17:33:50.584608","LAUNCH_DATE":"2021-05-15","DECAY_DATE":null,"MEAN_ELEMENT_THEORY":"SGP4","CENTER_NAME":"EARTH","ARG_OF_PERICENTER":"87.1329","MEAN_MOTION_DOT":"0.00000452","OBJECT_ID":"2021-041S","EPHEMERIS_TYPE":"0","NORAD_CAT_ID":"48569","RA_OF_ASC_NODE":"92.5405","REV_AT_EPOCH":"3686","FILE":"3273247","MEAN_ANOMALY":"272.9790","ECCENTRICITY":"0.00011360","ELEMENT_SET_NO":"999","PERIOD":"95.592","TLE_LINE1":"1 48569U 21041S   22014.73183547  .00000452  00000-0  49223-4 0  9992","GP_ID":"193880495","TIME_SYSTEM":"UTC","APOAPSIS":"548.013","OBJECT_TYPE":"PAYLOAD","OBJECT_NAME":"STARLINK-2219"},{"CLASSIFICATION_TYPE":"U","EPOCH":"2022-01-14T17:16:35.530752","SEMIMAJOR_AXIS":"6925.353","MEAN_MOTION_DDOT":"0.0000000000000","DECAY_DATE":null,"MEAN_ELEMENT_THEORY":"SGP4","LAUNCH_DATE":"2021-05-15","OBJECT_ID":"2021-041T","CENTER_NAME":"EARTH","ARG_OF_PERICENTER":"89.9939","MEAN_MOTION_DOT":"0.00001615","SITE":"AFETR","RCS_SIZE":"LARGE","INCLINATION":"53.0542","TLE_LINE2":"2 48570  53.0542 102.5768 0001208  89.9939 270.1188 15.06398625 36711","PERIAPSIS":"546.381","BSTAR":"0.00012729000000","COUNTRY_CODE":"US","MEAN_MOTION":"15.06398625","REF_FRAME":"TEME","PERIOD":"95.592","TIME_SYSTEM":"UTC","GP_ID":"193880745","TLE_LINE1":"1 48570U 21041T   22014.71985568  .00001615  00000-0  12729-3 0  9997","APOAPSIS":"548.054","OBJECT_TYPE":"PAYLOAD","OBJECT_NAME":"STARLINK-2220","EPHEMERIS_TYPE":"0","REV_AT_EPOCH":"3671","FILE":"3273247","MEAN_ANOMALY":"270.1188","RA_OF_ASC_NODE":"102.5768","NORAD_CAT_ID":"48570","ECCENTRICITY":"0.00012080","ELEMENT_SET_NO":"999"},{"TIME_SYSTEM":"UTC","TLE_LINE1":"1 48571U 21041U   22014.52818341  .00000909  00000-0  79918-4 0  9990","GP_ID":"193856557","PERIOD":"95.593","OBJECT_NAME":"STARLINK-2221","OBJECT_TYPE":"PAYLOAD","APOAPSIS":"548.097","FILE":"3273201","MEAN_ANOMALY":"270.0465","REV_AT_EPOCH":"3709","RA_OF_ASC_NODE":"103.4547","NORAD_CAT_ID":"48571","EPHEMERIS_TYPE":"0","ELEMENT_SET_NO":"999","ECCENTRICITY":"0.00012250","CLASSIFICATION_TYPE":"U","EPOCH":"2022-01-14T12:40:35.046624","SEMIMAJOR_AXIS":"6925.384","MEAN_MOTION_DDOT":"0.0000000000000","OBJECT_ID":"2021-041U","CENTER_NAME":"EARTH","ARG_OF_PERICENTER":"90.0664","MEAN_MOTION_DOT":"0.00000909","DECAY_DATE":null,"MEAN_ELEMENT_THEORY":"SGP4","LAUNCH_DATE":"2021-05-15","TLE_LINE2":"2 48571  53.0566 103.4547 0001225  90.0664 270.0465 15.06388593 37092","PERIAPSIS":"546.400","SITE":"AFETR","RCS_SIZE":"LARGE","INCLINATION":"53.0566","MEAN_MOTION":"15.06388593","REF_FRAME":"TEME","COUNTRY_CODE":"US","BSTAR":"0.00007991800000"},{"OBJECT_NAME":"STARLINK-2222","OBJECT_TYPE":"PAYLOAD","APOAPSIS":"548.007","TIME_SYSTEM":"UTC","TLE_LINE1":"1 48572U 21041V   22014.72353539 -.00000987  00000-0 -47414-4 0  9990","GP_ID":"193881248","PERIOD":"95.592","ELEMENT_SET_NO":"999","ECCENTRICITY":"0.00011240","FILE":"3273247","MEAN_ANOMALY":"265.7453","REV_AT_EPOCH":"3672","NORAD_CAT_ID":"48572","RA_OF_ASC_NODE":"102.5625","EPHEMERIS_TYPE":"0","OBJECT_ID":"2021-041V","ARG_OF_PERICENTER":"94.3664","MEAN_MOTION_DOT":"-0.00000987","CENTER_NAME":"EARTH","MEAN_ELEMENT_THEORY":"SGP4","DECAY_DATE":null,"LAUNCH_DATE":"2021-05-15","EPOCH":"2022-01-14T17:21:53.457696","CLASSIFICATION_TYPE":"U","SEMIMAJOR_AXIS":"6925.363","MEAN_MOTION_DDOT":"0.0000000000000","MEAN_MOTION":"15.06395131","REF_FRAME":"TEME","BSTAR":"-0.00004741400000","COUNTRY_CODE":"US","TLE_LINE2":"2 48572  53.0559 102.5625 0001124  94.3664 265.7453 15.06395131 36720","PERIAPSIS":"546.450","SITE":"AFETR","INCLINATION":"53.0559","RCS_SIZE":"LARGE"}];
